[{"OBJECT_NAME":"STARLINK-30613","OBJECT_ID":"2023-160C","EPOCH":"2026-03-09T01:52:28.305696","MEAN_MOTION":15.26737117,"ECCENTRICITY":9.719e-5,"INCLINATION":42.9982,"RA_OF_ASC_NODE":81.2216,"ARG_OF_PERICENTER":276.131,"MEAN_ANOMALY":83.9431,"EPHEMERIS_TYPE":0,"CLASSIFICATION_TYPE":"U","NORAD_CAT_ID":58077,"ELEMENT_SET_NO":999,"REV_AT_EPOCH":13286,"BSTAR":-7.0440871e-5,"MEAN_MOTION_DOT":-2.148e-5,"MEAN_MOTION_DDOT":0},{"OBJECT_NAME":"LIME","OBJECT_ID":"2025-009AR","EPOCH":"2026-03-09T17:44:15.459648","MEAN_MOTION":15.28703313,"ECCENTRICITY":0.00016347,"INCLINATION":97.3985,"RA_OF_ASC_NODE":151.4831,"ARG_OF_PERICENTER":35.9029,"MEAN_ANOMALY":324.232,"EPHEMERIS_TYPE":0,"CLASSIFICATION_TYPE":"U","NORAD_CAT_ID":62648,"ELEMENT_SET_NO":999,"REV_AT_EPOCH":6376,"BSTAR":0.00047722827,"MEAN_MOTION_DOT":0.00013254,"MEAN_MOTION_DDOT":0}]
